{"type": "FeatureCollection", "features": [ {"type": "Feature", "properties": {"norad_id": 33747, "name": "FENGYUN 1C DEB", "group": "fengyun-1c-debris", "lat": 37.239027842474755, "lon": -96.27233006460271, "alt_km": 828.2160976436198, "timestamp": "2025-12-08T03:50:07.284225+00:00", "meta": {"OBJECT_NAME": "FENGYUN 1C DEB", "OBJECT_ID": "1999-025DJL", "EPOCH": "2025-12-07T00:03:01.560960", "MEAN_MOTION": 14.17338054, "ECCENTRICITY": 0.00899301, "INCLINATION": 99.098, "RA_OF_ASC_NODE": 75.547, "ARG_OF_PERICENTER": 232.9564, "MEAN_ANOMALY": 126.336, "EPHEMERIS_TYPE": 0, "CLASSIFICATION_TYPE": "U", "NORAD_CAT_ID": 33747, "ELEMENT_SET_NO": 999, "REV_AT_EPOCH": 90051, "BSTAR": 0.0039970984, "MEAN_MOTION_DOT": 8.373e-05, "MEAN_MOTION_DDOT": 0}, "tle": {"line1": "1 33747U 99025DJL 25341.00210140  .00008373  00000+0  39971-2 0  9993", "line2": "2 33747  99.0980  75.5470 0089930 232.9564 126.3360 14.17338054900511"}}, "geometry": {"type": "Point", "coordinates": [-96.27233006460271, 37.239027842474755]}}, {"type": "Feature", "properties": {"norad_id": 33748, "name": "FENGYUN 1C DEB", "group": "fengyun-1c-debris", "lat": -78.77305257146247, "lon": 82.93274156144929, "alt_km": 768.8042436997421, "timestamp": "2025-12-08T03:50:07.284235+00:00", "meta": {"OBJECT_NAME": "FENGYUN 1C DEB", "OBJECT_ID": "1999-025DJM", "EPOCH": "2025-12-06T10:18:12.356352", "MEAN_MOTION": 14.32218901, "ECCENTRICITY": 0.00343533, "INCLINATION": 98.587, "RA_OF_ASC_NODE": 31.6464, "ARG_OF_PERICENTER": 259.9904, "MEAN_ANOMALY": 99.7402, "EPHEMERIS_TYPE": 0, "CLASSIFICATION_TYPE": "U", "NORAD_CAT_ID": 33748, "ELEMENT_SET_NO": 999, "REV_AT_EPOCH": 91303, "BSTAR": 0.0024683639, "MEAN_MOTION_DOT": 6.657e-05, "MEAN_MOTION_DDOT": 0}, "tle": {"line1": "1 33748U 99025DJM 25340.42930968  .00006657  00000+0  24684-2 0  9994", "line2": "2 33748  98.5870  31.6464 0034353 259.9904  99.7402 14.32218901913032"}}, "geometry": {"type": "Point", "coordinates": [82.93274156144929, -78.77305257146247]}}, {"type": "Feature", "properties": {"norad_id": 35088, "name": "FENGYUN 1C DEB", "group": "fengyun-1c-debris", "lat": -26.01492101844142, "lon": 162.20209688427389, "alt_km": 941.748385638889, "timestamp": "2025-12-08T03:50:07.284245+00:00", "meta": {"OBJECT_NAME": "FENGYUN 1C DEB", "OBJECT_ID": "1999-025DJQ", "EPOCH": "2025-12-05T18:07:13.251936", "MEAN_MOTION": 14.11541767, "ECCENTRICITY": 0.0269112, "INCLINATION": 94.6213, "RA_OF_ASC_NODE": 158.6962, "ARG_OF_PERICENTER": 224.9702, "MEAN_ANOMALY": 132.9405, "EPHEMERIS_TYPE": 0, "CLASSIFICATION_TYPE": "U", "NORAD_CAT_ID": 35088, "ELEMENT_SET_NO": 999, "REV_AT_EPOCH": 58701, "BSTAR": 0.013442762, "MEAN_MOTION_DOT": 0.00034432, "MEAN_MOTION_DDOT": 0}, "tle": {"line1": "1 35088U 99025DJQ 25339.75501449  .00034432  00000+0  13443-1 0  9997", "line2": "2 35088  94.6213 158.6962 0269112 224.9702 132.9405 14.11541767587017"}}, "geometry": {"type": "Point", "coordinates": [162.20209688427389, -26.01492101844142]}}, {"type": "Feature", "properties": {"norad_id": 35089, "name": "FENGYUN 1C DEB", "group": "fengyun-1c-debris", "lat": 66.22765042652816, "lon": -167.85251243481028, "alt_km": 803.417793227507, "timestamp": "2025-12-08T03:50:07.284255+00:00", "meta": {"OBJECT_NAME": "FENGYUN 1C DEB", "OBJECT_ID": "1999-025DJR", "EPOCH": "2025-12-05T17:47:21.264576", "MEAN_MOTION": 14.19392682, "ECCENTRICITY": 0.00293681, "INCLINATION": 98.5595, "RA_OF_ASC_NODE": 349.8165, "ARG_OF_PERICENTER": 84.7975, "MEAN_ANOMALY": 275.6552, "EPHEMERIS_TYPE": 0, "CLASSIFICATION_TYPE": "U", "NORAD_CAT_ID": 35089, "ELEMENT_SET_NO": 999, "REV_AT_EPOCH": 60776, "BSTAR": 0.00072532706, "MEAN_MOTION_DOT": 1.49e-05, "MEAN_MOTION_DDOT": 0}, "tle": {"line1": "1 35089U 99025DJR 25339.74121834  .00001490  00000+0  72533-3 0  9998", "line2": "2 35089  98.5595 349.8165 0029368  84.7975 275.6552 14.19392682607765"}}, "geometry": {"type": "Point", "coordinates": [-167.85251243481028, 66.22765042652816]}}, {"type": "Feature", "properties": {"norad_id": 35090, "name": "FENGYUN 1C DEB", "group": "fengyun-1c-debris", "lat": 73.75317207229412, "lon": -151.51892016579, "alt_km": 815.5588947332662, "timestamp": "2025-12-08T03:50:07.284265+00:00", "meta": {"OBJECT_NAME": "FENGYUN 1C DEB", "OBJECT_ID": "1999-025DJS", "EPOCH": "2025-11-28T11:16:09.482016", "MEAN_MOTION": 14.17474979, "ECCENTRICITY": 0.00568935, "INCLINATION": 99.1993, "RA_OF_ASC_NODE": 344.6679, "ARG_OF_PERICENTER": 56.1043, "MEAN_ANOMALY": 304.5524, "EPHEMERIS_TYPE": 0, "CLASSIFICATION_TYPE": "U", "NORAD_CAT_ID": 35090, "ELEMENT_SET_NO": 999, "REV_AT_EPOCH": 66048, "BSTAR": 0.0014922384, "MEAN_MOTION_DOT": 3.028e-05, "MEAN_MOTION_DDOT": 0}, "tle": {"line1": "1 35090U 99025DJS 25332.46955419  .00003028  00000+0  14922-2 0  9992", "line2": "2 35090  99.1993 344.6679 0056893  56.1043 304.5524 14.17474979660488"}}, "geometry": {"type": "Point", "coordinates": [-151.51892016579, 73.75317207229412]}}, {"type": "Feature", "properties": {"norad_id": 35091, "name": "FENGYUN 1C DEB", "group": "fengyun-1c-debris", "lat": 72.3440703857047, "lon": 57.900987765862745, "alt_km": 703.067994707515, "timestamp": "2025-12-08T03:50:07.284274+00:00", "meta": {"OBJECT_NAME": "FENGYUN 1C DEB", "OBJECT_ID": "1999-025DJT", "EPOCH": "2025-12-07T06:07:58.962720", "MEAN_MOTION": 14.61338128, "ECCENTRICITY": 0.00486217, "INCLINATION": 98.5957, "RA_OF_ASC_NODE": 85.3355, "ARG_OF_PERICENTER": 308.794, "MEAN_ANOMALY": 50.8921, "EPHEMERIS_TYPE": 0, "CLASSIFICATION_TYPE": "U", "NORAD_CAT_ID": 35091, "ELEMENT_SET_NO": 999, "REV_AT_EPOCH": 89847, "BSTAR": 0.0040944973, "MEAN_MOTION_DOT": 0.00020578, "MEAN_MOTION_DDOT": 0}, "tle": {"line1": "1 35091U 99025DJT 25341.25554355  .00020578  00000+0  40945-2 0  9997", "line2": "2 35091  98.5957  85.3355 0048621 308.7940  50.8921 14.61338128898472"}}, "geometry": {"type": "Point", "coordinates": [57.900987765862745, 72.3440703857047]}}, {"type": "Feature", "properties": {"norad_id": 35102, "name": "FENGYUN 1C DEB", "group": "fengyun-1c-debris", "lat": 43.072568509632774, "lon": -15.45416120482638, "alt_km": 771.4630047827186, "timestamp": "2025-12-08T03:50:07.284284+00:00", "meta": {"OBJECT_NAME": "FENGYUN 1C DEB", "OBJECT_ID": "1999-025DKE", "EPOCH": "2025-11-24T18:37:30.315648", "MEAN_MOTION": 14.28809668, "ECCENTRICITY": 0.0059856, "INCLINATION": 98.4816, "RA_OF_ASC_NODE": 339.5496, "ARG_OF_PERICENTER": 144.8588, "MEAN_ANOMALY": 215.6565, "EPHEMERIS_TYPE": 0, "CLASSIFICATION_TYPE": "U", "NORAD_CAT_ID": 35102, "ELEMENT_SET_NO": 999, "REV_AT_EPOCH": 64656, "BSTAR": 0.00057863293, "MEAN_MOTION_DOT": 1.445e-05, "MEAN_MOTION_DDOT": 0}, "tle": {"line1": "1 35102U 99025DKE 25328.77604532  .00001445  00000+0  57863-3 0  9995", "line2": "2 35102  98.4816 339.5496 0059856 144.8588 215.6565 14.28809668646568"}}, "geometry": {"type": "Point", "coordinates": [-15.45416120482638, 43.072568509632774]}}, {"type": "Feature", "properties": {"norad_id": 35104, "name": "FENGYUN 1C DEB", "group": "fengyun-1c-debris", "lat": -11.344515117420348, "lon": -9.268626268946656, "alt_km": 850.1793006487915, "timestamp": "2025-12-08T03:50:07.284294+00:00", "meta": {"OBJECT_NAME": "FENGYUN 1C DEB", "OBJECT_ID": "1999-025DKG", "EPOCH": "2025-12-06T18:54:45.260640", "MEAN_MOTION": 14.20313369, "ECCENTRICITY": 0.00310538, "INCLINATION": 98.5964, "RA_OF_ASC_NODE": 347.6591, "ARG_OF_PERICENTER": 157.8508, "MEAN_ANOMALY": 20.7382, "EPHEMERIS_TYPE": 0, "CLASSIFICATION_TYPE": "U", "NORAD_CAT_ID": 35104, "ELEMENT_SET_NO": 999, "REV_AT_EPOCH": 89682, "BSTAR": 0.00068235303, "MEAN_MOTION_DOT": 1.425e-05, "MEAN_MOTION_DDOT": 0}, "tle": {"line1": "1 35104U 99025DKG 25340.78802385  .00001425  00000+0  68235-3 0  9991", "line2": "2 35104  98.5964 347.6591 0031053 157.8508  20.7382 14.20313369896824"}}, "geometry": {"type": "Point", "coordinates": [-9.268626268946656, -11.344515117420348]}}, {"type": "Feature", "properties": {"norad_id": 35105, "name": "FENGYUN 1C DEB", "group": "fengyun-1c-debris", "lat": -26.977000053117173, "lon": -32.43690608934736, "alt_km": 752.922780677075, "timestamp": "2025-12-08T03:50:07.284304+00:00", "meta": {"OBJECT_NAME": "FENGYUN 1C DEB", "OBJECT_ID": "1999-025DKH", "EPOCH": "2025-12-07T04:42:03.792672", "MEAN_MOTION": 14.45355121, "ECCENTRICITY": 0.01129218, "INCLINATION": 98.9426, "RA_OF_ASC_NODE": 321.9509, "ARG_OF_PERICENTER": 70.8399, "MEAN_ANOMALY": 290.4974, "EPHEMERIS_TYPE": 0, "CLASSIFICATION_TYPE": "U", "NORAD_CAT_ID": 35105, "ELEMENT_SET_NO": 999, "REV_AT_EPOCH": 94413, "BSTAR": 0.00061034487, "MEAN_MOTION_DOT": 2.268e-05, "MEAN_MOTION_DDOT": 0}, "tle": {"line1": "1 35105U 99025DKH 25341.19587723  .00002268  00000+0  61034-3 0  9990", "line2": "2 35105  98.9426 321.9509 0112921  70.8399 290.4974 14.45355121944132"}}, "geometry": {"type": "Point", "coordinates": [-32.43690608934736, -26.977000053117173]}}, {"type": "Feature", "properties": {"norad_id": 35108, "name": "FENGYUN 1C DEB", "group": "fengyun-1c-debris", "lat": -38.20980021789069, "lon": 150.910427828016, "alt_km": 955.4852037830287, "timestamp": "2025-12-08T03:50:07.284313+00:00", "meta": {"OBJECT_NAME": "FENGYUN 1C DEB", "OBJECT_ID": "1999-025DKL", "EPOCH": "2025-11-17T16:56:54.235392", "MEAN_MOTION": 14.06875481, "ECCENTRICITY": 0.01346692, "INCLINATION": 98.7997, "RA_OF_ASC_NODE": 318.0085, "ARG_OF_PERICENTER": 131.4741, "MEAN_ANOMALY": 229.8083, "EPHEMERIS_TYPE": 0, "CLASSIFICATION_TYPE": "U", "NORAD_CAT_ID": 35108, "ELEMENT_SET_NO": 999, "REV_AT_EPOCH": 88886, "BSTAR": 0.00053903391, "MEAN_MOTION_DOT": 9.33e-06, "MEAN_MOTION_DDOT": 0}, "tle": {"line1": "1 35108U 99025DKL 25321.70618328  .00000933  00000+0  53903-3 0  9997", "line2": "2 35108  98.7997 318.0085 0134669 131.4741 229.8083 14.06875481888867"}}, "geometry": {"type": "Point", "coordinates": [150.910427828016, -38.20980021789069]}}]}